[{"OBJECT_NAME":"STARLINK-34052","OBJECT_ID":"2025-094L","EPOCH":"2026-03-09T21:55:28.912512","MEAN_MOTION":14.98352171,"ECCENTRICITY":0.00029817,"INCLINATION":70.0019,"RA_OF_ASC_NODE":234.0106,"ARG_OF_PERICENTER":274.332,"MEAN_ANOMALY":85.7499,"EPHEMERIS_TYPE":0,"CLASSIFICATION_TYPE":"U","NORAD_CAT_ID":63874,"ELEMENT_SET_NO":999,"REV_AT_EPOCH":4723,"BSTAR":0.00022153294,"MEAN_MOTION_DOT":2.553e-5,"MEAN_MOTION_DDOT":0},{"OBJECT_NAME":"FENGYUN 1C DEB","OBJECT_ID":"1999-025CBV","EPOCH":"2026-03-08T13:20:44.308896","MEAN_MOTION":14.76950564,"ECCENTRICITY":0.01886082,"INCLINATION":98.8377,"RA_OF_ASC_NODE":348.5578,"ARG_OF_PERICENTER":327.9291,"MEAN_ANOMALY":31.055,"EPHEMERIS_TYPE":0,"CLASSIFICATION_TYPE":"U","NORAD_CAT_ID":31663,"ELEMENT_SET_NO":999,"REV_AT_EPOCH":540,"BSTAR":0.00053050003,"MEAN_MOTION_DOT":4.94e-5,"MEAN_MOTION_DDOT":0}]
